{
    "links": {
        "self": "http://www.neowsapp.com/rest/v1/neo/3175336?api_key=iIulBulltgU6a56xZRHN4H3l9WmuAYTsLGpBGhQ2"
    },
    "id": "3175336",
    "neo_reference_id": "3175336",
    "name": "(2004 DF2)",
    "designation": "2004 DF2",
    "nasa_jpl_url": "http://ssd.jpl.nasa.gov/sbdb.cgi?sstr=3175336",
    "absolute_magnitude_h": 26.1,
    "estimated_diameter": {
        "kilometers": {
            "estimated_diameter_min": 0.0160160338,
            "estimated_diameter_max": 0.0358129403
        },
        "meters": {
            "estimated_diameter_min": 16.0160337979,
            "estimated_diameter_max": 35.8129403019
        },
        "miles": {
            "estimated_diameter_min": 0.0099518989,
            "estimated_diameter_max": 0.0222531225
        },
        "feet": {
            "estimated_diameter_min": 52.5460443254,
            "estimated_diameter_max": 117.4965270602
        }
    },
    "is_potentially_hazardous_asteroid": false,
    "close_approach_data": [
        {
            "close_approach_date": "2004-02-16",
            "close_approach_date_full": "2004-Feb-16 21:04",
            "epoch_date_close_approach": 1076965440000,
            "relative_velocity": {
                "kilometers_per_second": "20.3452301762",
                "kilometers_per_hour": "73242.8286342833",
                "miles_per_hour": "45510.245381119"
            },
            "miss_distance": {
                "astronomical": "0.005699464",
                "lunar": "2.217091496",
                "kilometers": "852627.67454168",
                "miles": "529798.269887984"
            },
            "orbiting_body": "Moon"
        },
        {
            "close_approach_date": "2004-02-17",
            "close_approach_date_full": "2004-Feb-17 00:58",
            "epoch_date_close_approach": 1076979480000,
            "relative_velocity": {
                "kilometers_per_second": "19.6007174009",
                "kilometers_per_hour": "70562.5826431842",
                "miles_per_hour": "43844.8447540385"
            },
            "miss_distance": {
                "astronomical": "0.0072835251",
                "lunar": "2.8332912639",
                "kilometers": "1089599.841051537",
                "miles": "677045.9461917306"
            },
            "orbiting_body": "Earth"
        }
    ],
    "orbital_data": {
        "orbit_id": "7",
        "orbit_determination_date": "2017-04-06 09:13:09",
        "first_observation_date": "2004-02-19",
        "last_observation_date": "2004-02-22",
        "data_arc_in_days": 3,
        "observations_used": 19,
        "orbit_uncertainty": "9",
        "minimum_orbit_intersection": ".00436572",
        "jupiter_tisserand_invariant": "3.988",
        "epoch_osculation": "2453055.5",
        "eccentricity": ".6532340815793415",
        "semi_major_axis": "1.658959224576008",
        "inclination": "5.234379244501281",
        "ascending_node_longitude": "325.2273672382985",
        "orbital_period": "780.4624166864843",
        "perihelion_distance": ".5752705191325229",
        "perihelion_argument": "89.51555422187889",
        "aphelion_distance": "2.742647930019493",
        "perihelion_time": "2453004.107210477294",
        "mean_anomaly": "23.70569528091225",
        "mean_motion": ".4612650043142485",
        "equinox": "J2000",
        "orbit_class": {
            "orbit_class_type": "APO",
            "orbit_class_description": "Near-Earth asteroid orbits which cross the Earth’s orbit similar to that of 1862 Apollo",
            "orbit_class_range": "a (semi-major axis) > 1.0 AU; q (perihelion) < 1.017 AU"
        }
    },
    "is_sentry_object": false
}